*******************************************************************************
Ephemeris / WWW_USER Wed Mar 14 15:48:24 2018 Pasadena, USA      / Horizons    
*******************************************************************************
Target body name: Ariel (701)                     {source: ura111}
Center body name: Solar System Barycenter (0)     {source: DE431mx}
Center-site name: BODY CENTER
*******************************************************************************
Start time      : A.D. 2000-Jan-01 00:00:00.0000 TDB
Stop  time      : A.D. 2001-Jan-01 00:00:00.0000 TDB
Step-size       : 7200 minutes
*******************************************************************************
Center geodetic : 0.00000000,0.00000000,0.0000000 {E-lon(deg),Lat(deg),Alt(km)}
Center cylindric: 0.00000000,0.00000000,0.0000000 {E-lon(deg),Dxy(km),Dz(km)}
Center radii    : (undefined)                                                  
Output units    : AU-D                                                         
Output type     : GEOMETRIC cartesian states
Output format   : 2 (position and velocity)
Reference frame : ICRF/J2000.0                                                 
Coordinate systm: Ecliptic and Mean Equinox of Reference Epoch                 
*******************************************************************************
JDTDB
   X     Y     Z
   VX    VY    VZ
*******************************************************************************
$$SOE
2451754.500000000 = A.D. 2000-Jul-29 00:00:00.0000 TDB 
   1.497546294395903E+01 -1.316789145020084E+01 -2.440667595181323E-01
  -2.178457589341338E-04  3.178256903652363E-03 -1.494224020480484E-03
2451759.500000000 = A.D. 2000-Aug-03 00:00:00.0000 TDB 
   1.498840858367749E+01 -1.315404710202680E+01 -2.441154343697281E-01
  -6.726364183166454E-05  3.108818335510450E-03 -1.769653037764463E-03
2451764.500000000 = A.D. 2000-Aug-08 00:00:00.0000 TDB 
   1.500133251791442E+01 -1.314018741202010E+01 -2.441539803014182E-01
   1.098391687611255E-04  3.036280194383151E-03 -2.025431122886048E-03
2451769.500000000 = A.D. 2000-Aug-13 00:00:00.0000 TDB 
   1.501423418608984E+01 -1.312631217502996E+01 -2.441817067367543E-01
   3.120347640633509E-04  2.961060804732219E-03 -2.260825342657958E-03
2451774.500000000 = A.D. 2000-Aug-18 00:00:00.0000 TDB 
   1.502711466476549E+01 -1.311242185323417E+01 -2.442001066873536E-01
   5.386112156249444E-04  2.883565739915569E-03 -2.474001487976762E-03
2451779.500000000 = A.D. 2000-Aug-23 00:00:00.0000 TDB 
   1.503996949894861E+01 -1.309851562365045E+01 -2.442101897299064E-01
   7.843716261098611E-04  2.805400398077348E-03 -2.661651513209472E-03
2451784.500000000 = A.D. 2000-Aug-28 00:00:00.0000 TDB 
   1.505280111310377E+01 -1.308459414606513E+01 -2.442127572696618E-01
   1.049978894439856E-03  2.726688410203410E-03 -2.821806299015231E-03
2451789.500000000 = A.D. 2000-Sep-02 00:00:00.0000 TDB 
   1.506560686310314E+01 -1.307065713876235E+01 -2.442098447435414E-01
   1.328998606602691E-03  2.649025466319278E-03 -2.953154031600460E-03
2451794.500000000 = A.D. 2000-Sep-07 00:00:00.0000 TDB 
   1.507838642352311E+01 -1.305670445217504E+01 -2.442007668455849E-01
   1.622449695527394E-03  2.572195757267132E-03 -3.055646348573445E-03
2451799.500000000 = A.D. 2000-Sep-12 00:00:00.0000 TDB 
   1.509114056292510E+01 -1.304273677006256E+01 -2.441891314472709E-01
   1.924030167301788E-03  2.498078492256726E-03 -3.125700577175230E-03
2451804.500000000 = A.D. 2000-Sep-17 00:00:00.0000 TDB 
   1.510386721856910E+01 -1.302875349959728E+01 -2.441737898048338E-01
   2.233823676876880E-03  2.426494279309402E-03 -3.164473499994335E-03
2451809.500000000 = A.D. 2000-Sep-22 00:00:00.0000 TDB 
   1.511656744301993E+01 -1.301475537900716E+01 -2.441582984354985E-01
   2.545136445614513E-03  2.359101484315210E-03 -3.170615523986150E-03
2451814.500000000 = A.D. 2000-Sep-27 00:00:00.0000 TDB 
   1.512924067698642E+01 -1.300074235242962E+01 -2.441430188404195E-01
   2.856634296463820E-03  2.296083488731272E-03 -3.144914809896314E-03
2451819.500000000 = A.D. 2000-Oct-02 00:00:00.0000 TDB 
   1.514188695379102E+01 -1.298671452773783E+01 -2.441285373089358E-01
   3.166055893785931E-03  2.238163929638242E-03 -3.085715837380150E-03
2451824.500000000 = A.D. 2000-Oct-07 00:00:00.0000 TDB 
   1.515450644013715E+01 -1.297267229065878E+01 -2.441172894414522E-01
   3.468361296886145E-03  2.185895482146230E-03 -2.997029059491558E-03
2451829.500000000 = A.D. 2000-Oct-12 00:00:00.0000 TDB 
   1.516709972451655E+01 -1.295861588136305E+01 -2.441099235919960E-01
   3.761285832633839E-03  2.140246715475102E-03 -2.875440960041151E-03
2451834.500000000 = A.D. 2000-Oct-17 00:00:00.0000 TDB 
   1.517966714598343E+01 -1.294454564210950E+01 -2.441082691659938E-01
   4.040510168087082E-03  2.101458661502319E-03 -2.726060456293355E-03
2451839.500000000 = A.D. 2000-Oct-22 00:00:00.0000 TDB 
   1.519220855400832E+01 -1.293046153298700E+01 -2.441121702608955E-01
   4.306432954782327E-03  2.069546488685724E-03 -2.548132334675139E-03
2451844.500000000 = A.D. 2000-Oct-27 00:00:00.0000 TDB 
   1.520472639023458E+01 -1.291636457247564E+01 -2.441249531569485E-01
   4.551601599806668E-03  2.045785230893634E-03 -2.344273200561883E-03
2451849.500000000 = A.D. 2000-Nov-01 00:00:00.0000 TDB 
   1.521721876412972E+01 -1.290225409800066E+01 -2.441447501008046E-01
   4.778346177170773E-03  2.029520075458095E-03 -2.115501786249559E-03
2451854.500000000 = A.D. 2000-Nov-06 00:00:00.0000 TDB 
   1.522968951011207E+01 -1.288813149324476E+01 -2.441753312487727E-01
   4.979797859216409E-03  2.021635946548883E-03 -1.866327185604152E-03
2451859.500000000 = A.D. 2000-Nov-11 00:00:00.0000 TDB 
   1.524213778544609E+01 -1.287399650723383E+01 -2.442161011289533E-01
   5.156755825475184E-03  2.021794624428835E-03 -1.597914502986061E-03
2451864.500000000 = A.D. 2000-Nov-16 00:00:00.0000 TDB 
   1.525456447990100E+01 -1.285984932942658E+01 -2.442669136308789E-01
   5.306052345950085E-03  2.030540839218883E-03 -1.311343836344595E-03
2451869.500000000 = A.D. 2000-Nov-21 00:00:00.0000 TDB 
   1.526697234749463E+01 -1.284569100574259E+01 -2.443308173468364E-01
   5.427167099725115E-03  2.047040574949303E-03 -1.013447915078317E-03
2451874.500000000 = A.D. 2000-Nov-26 00:00:00.0000 TDB 
   1.527936049860599E+01 -1.283152107680772E+01 -2.444057988145050E-01
   5.517068360087218E-03  2.072087737879732E-03 -7.033178138592489E-04
2451879.500000000 = A.D. 2000-Dec-01 00:00:00.0000 TDB 
   1.529173249281976E+01 -1.281734061391166E+01 -2.444938325927830E-01
   5.576152136346239E-03  2.104586180238423E-03 -3.882110341322818E-04
2451884.500000000 = A.D. 2000-Dec-06 00:00:00.0000 TDB 
   1.530408698969176E+01 -1.280314931716770E+01 -2.445947533947654E-01
   5.604426936634226E-03  2.144680052105962E-03 -6.706888833739037E-05
2451889.500000000 = A.D. 2000-Dec-11 00:00:00.0000 TDB 
   1.531642772853036E+01 -1.278894795545106E+01 -2.447080649993275E-01
   5.599070996142276E-03  2.191995276303559E-03  2.529221339248021E-04
2451894.500000000 = A.D. 2000-Dec-16 00:00:00.0000 TDB 
   1.532875402111706E+01 -1.277473649551595E+01 -2.448345168405158E-01
   5.562284661913584E-03  2.246093003840335E-03  5.721089437745199E-04
2451899.500000000 = A.D. 2000-Dec-21 00:00:00.0000 TDB 
   1.534106870012308E+01 -1.276051550211641E+01 -2.449735520727385E-01
   5.493468079575229E-03  2.306100526992992E-03  8.832202022041627E-04
2451904.500000000 = A.D. 2000-Dec-26 00:00:00.0000 TDB 
   1.535337273784044E+01 -1.274628513330088E+01 -2.451246814758741E-01
   5.394118701845297E-03  2.371609876458802E-03  1.185705271670920E-03
2451909.500000000 = A.D. 2000-Dec-31 00:00:00.0000 TDB 
   1.536566595227112E+01 -1.273204535001140E+01 -2.452877783090660E-01
   5.263130631942182E-03  2.442421839360286E-03  1.476367425189121E-03
